<?xml version="1.0" encoding="UTF-8"?>
<kml xmlns="http://www.opengis.net/kml/2.2">
  <Document>
    <name>Compass fleet snapshot</name>
    <description>Snapshot taken 2026-10-05T06:13:05.506Z from Compass public tracking link.</description>
    <Placemark>
      <name>Bus 01</name>
      <description>Status: MOVING
Speed: 3.6 km/h
Heading: 143 deg
Last update (UTC): 2026-10-05T06:13:00Z
https://www.google.com/maps/search/?api=1&amp;query=20.937593333333332,72.91148444444444</description>
      <Style>
        <IconStyle>
          <color>ff3aa716</color>
          <scale>1.1</scale>
          <Icon><href>http://maps.google.com/mapfiles/kml/shapes/bus.png</href></Icon>
        </IconStyle>
      </Style>
      <Point><coordinates>72.91148444444444,20.937593333333332,0</coordinates></Point>
    </Placemark>
    <Placemark>
      <name>Bus 02</name>
      <description>Status: MOVING
Speed: 2.8 km/h
Heading: 267 deg
Last update (UTC): 2026-10-05T06:12:57Z
https://www.google.com/maps/search/?api=1&amp;query=20.95024,72.92173777777778</description>
      <Style>
        <IconStyle>
          <color>ff3aa716</color>
          <scale>1.1</scale>
          <Icon><href>http://maps.google.com/mapfiles/kml/shapes/bus.png</href></Icon>
        </IconStyle>
      </Style>
      <Point><coordinates>72.92173777777778,20.95024,0</coordinates></Point>
    </Placemark>
    <Placemark>
      <name>Bus 03</name>
      <description>Status: MOVING
Speed: 10.6 km/h
Heading: 343 deg
Last update (UTC): 2026-10-05T06:12:50Z
https://www.google.com/maps/search/?api=1&amp;query=20.952262222222224,72.91151555555555</description>
      <Style>
        <IconStyle>
          <color>ff3aa716</color>
          <scale>1.1</scale>
          <Icon><href>http://maps.google.com/mapfiles/kml/shapes/bus.png</href></Icon>
        </IconStyle>
      </Style>
      <Point><coordinates>72.91151555555555,20.952262222222224,0</coordinates></Point>
    </Placemark>
    <Placemark>
      <name>Bus 04</name>
      <description>Status: STOPPED
Speed: 0.0 km/h
Heading: 131 deg
Last update (UTC): 2026-10-05T06:12:53Z
https://www.google.com/maps/search/?api=1&amp;query=20.93674222222222,72.91507111111112</description>
      <Style>
        <IconStyle>
          <color>ff2626dc</color>
          <scale>1.1</scale>
          <Icon><href>http://maps.google.com/mapfiles/kml/shapes/bus.png</href></Icon>
        </IconStyle>
      </Style>
      <Point><coordinates>72.91507111111112,20.93674222222222,0</coordinates></Point>
    </Placemark>
    <Placemark>
      <name>Bus 05</name>
      <description>Status: MOVING
Speed: 11.9 km/h
Heading: 357 deg
Last update (UTC): 2026-10-05T06:12:52Z
https://www.google.com/maps/search/?api=1&amp;query=20.900097777777777,72.91902222222222</description>
      <Style>
        <IconStyle>
          <color>ff3aa716</color>
          <scale>1.1</scale>
          <Icon><href>http://maps.google.com/mapfiles/kml/shapes/bus.png</href></Icon>
        </IconStyle>
      </Style>
      <Point><coordinates>72.91902222222222,20.900097777777777,0</coordinates></Point>
    </Placemark>
    <Placemark>
      <name>Bus 06</name>
      <description>Status: STOPPED
Speed: 0.0 km/h
Heading: 320 deg
Last update (UTC): 2026-10-05T06:12:56Z
https://www.google.com/maps/search/?api=1&amp;query=20.84977111111111,72.91133777777777</description>
      <Style>
        <IconStyle>
          <color>ff2626dc</color>
          <scale>1.1</scale>
          <Icon><href>http://maps.google.com/mapfiles/kml/shapes/bus.png</href></Icon>
        </IconStyle>
      </Style>
      <Point><coordinates>72.91133777777777,20.84977111111111,0</coordinates></Point>
    </Placemark>
    <Placemark>
      <name>Bus 07</name>
      <description>Status: MOVING
Speed: 12.5 km/h
Heading: 161 deg
Last update (UTC): 2026-10-05T06:13:01Z
https://www.google.com/maps/search/?api=1&amp;query=21.029593333333334,72.97114666666667</description>
      <Style>
        <IconStyle>
          <color>ff3aa716</color>
          <scale>1.1</scale>
          <Icon><href>http://maps.google.com/mapfiles/kml/shapes/bus.png</href></Icon>
        </IconStyle>
      </Style>
      <Point><coordinates>72.97114666666667,21.029593333333334,0</coordinates></Point>
    </Placemark>
    <Placemark>
      <name>Bus 08</name>
      <description>Status: STOPPED
Speed: 0.0 km/h
Heading: 294 deg
Last update (UTC): 2026-10-05T06:01:39Z
https://www.google.com/maps/search/?api=1&amp;query=20.950435555555554,72.91382666666667</description>
      <Style>
        <IconStyle>
          <color>ff2626dc</color>
          <scale>1.1</scale>
          <Icon><href>http://maps.google.com/mapfiles/kml/shapes/bus.png</href></Icon>
        </IconStyle>
      </Style>
      <Point><coordinates>72.91382666666667,20.950435555555554,0</coordinates></Point>
    </Placemark>
    <Placemark>
      <name>Bus 09</name>
      <description>Status: MOVING
Speed: 8.6 km/h
Heading: 280 deg
Last update (UTC): 2026-10-05T06:12:52Z
https://www.google.com/maps/search/?api=1&amp;query=20.946284444444444,72.96318666666667</description>
      <Style>
        <IconStyle>
          <color>ff3aa716</color>
          <scale>1.1</scale>
          <Icon><href>http://maps.google.com/mapfiles/kml/shapes/bus.png</href></Icon>
        </IconStyle>
      </Style>
      <Point><coordinates>72.96318666666667,20.946284444444444,0</coordinates></Point>
    </Placemark>
    <Placemark>
      <name>Bus 10</name>
      <description>Status: MOVING
Speed: 10.6 km/h
Heading: 108 deg
Last update (UTC): 2026-10-05T06:12:58Z
https://www.google.com/maps/search/?api=1&amp;query=20.920906666666667,73.0095911111111</description>
      <Style>
        <IconStyle>
          <color>ff3aa716</color>
          <scale>1.1</scale>
          <Icon><href>http://maps.google.com/mapfiles/kml/shapes/bus.png</href></Icon>
        </IconStyle>
      </Style>
      <Point><coordinates>73.0095911111111,20.920906666666667,0</coordinates></Point>
    </Placemark>
    <Placemark>
      <name>Bus 11</name>
      <description>Status: STOPPED
Speed: 0.0 km/h
Heading: 205 deg
Last update (UTC): 2026-10-05T06:12:58Z
https://www.google.com/maps/search/?api=1&amp;query=20.949368888888888,72.91373333333334</description>
      <Style>
        <IconStyle>
          <color>ff2626dc</color>
          <scale>1.1</scale>
          <Icon><href>http://maps.google.com/mapfiles/kml/shapes/bus.png</href></Icon>
        </IconStyle>
      </Style>
      <Point><coordinates>72.91373333333334,20.949368888888888,0</coordinates></Point>
    </Placemark>
    <Placemark>
      <name>Bus 12</name>
      <description>Status: STOPPED
Speed: 0.0 km/h
Heading: 15 deg
Last update (UTC): 2026-10-05T05:56:40Z
https://www.google.com/maps/search/?api=1&amp;query=20.950455555555557,72.91388888888889</description>
      <Style>
        <IconStyle>
          <color>ff2626dc</color>
          <scale>1.1</scale>
          <Icon><href>http://maps.google.com/mapfiles/kml/shapes/bus.png</href></Icon>
        </IconStyle>
      </Style>
      <Point><coordinates>72.91388888888889,20.950455555555557,0</coordinates></Point>
    </Placemark>
    <Placemark>
      <name>Bus 13</name>
      <description>Status: STOPPED
Speed: 0.0 km/h
Heading: 28 deg
Last update (UTC): 2026-10-05T05:11:30Z
https://www.google.com/maps/search/?api=1&amp;query=20.95033777777778,72.91384</description>
      <Style>
        <IconStyle>
          <color>ff2626dc</color>
          <scale>1.1</scale>
          <Icon><href>http://maps.google.com/mapfiles/kml/shapes/bus.png</href></Icon>
        </IconStyle>
      </Style>
      <Point><coordinates>72.91384,20.95033777777778,0</coordinates></Point>
    </Placemark>
    <Placemark>
      <name>Bus 14</name>
      <description>Status: STOPPED
Speed: 0.0 km/h
Heading: 269 deg
Last update (UTC): 2026-10-05T06:13:00Z
https://www.google.com/maps/search/?api=1&amp;query=20.958391111111112,73.05950222222222</description>
      <Style>
        <IconStyle>
          <color>ff2626dc</color>
          <scale>1.1</scale>
          <Icon><href>http://maps.google.com/mapfiles/kml/shapes/bus.png</href></Icon>
        </IconStyle>
      </Style>
      <Point><coordinates>73.05950222222222,20.958391111111112,0</coordinates></Point>
    </Placemark>
    <Placemark>
      <name>Bus 15</name>
      <description>Status: MOVING
Speed: 5.0 km/h
Heading: 277 deg
Last update (UTC): 2026-10-05T06:12:52Z
https://www.google.com/maps/search/?api=1&amp;query=20.95337333333333,72.92504</description>
      <Style>
        <IconStyle>
          <color>ff3aa716</color>
          <scale>1.1</scale>
          <Icon><href>http://maps.google.com/mapfiles/kml/shapes/bus.png</href></Icon>
        </IconStyle>
      </Style>
      <Point><coordinates>72.92504,20.95337333333333,0</coordinates></Point>
    </Placemark>
    <Placemark>
      <name>Bus 16</name>
      <description>Status: STOPPED
Speed: 0.0 km/h
Heading: 97 deg
Last update (UTC): 2026-10-05T06:12:56Z
https://www.google.com/maps/search/?api=1&amp;query=20.949931111111113,72.93201333333333</description>
      <Style>
        <IconStyle>
          <color>ff2626dc</color>
          <scale>1.1</scale>
          <Icon><href>http://maps.google.com/mapfiles/kml/shapes/bus.png</href></Icon>
        </IconStyle>
      </Style>
      <Point><coordinates>72.93201333333333,20.949931111111113,0</coordinates></Point>
    </Placemark>
    <Placemark>
      <name>Bus 17</name>
      <description>Status: STOPPED
Speed: 0.0 km/h
Heading: 79 deg
Last update (UTC): 2026-10-05T06:12:55Z
https://www.google.com/maps/search/?api=1&amp;query=20.949922222222224,72.91713777777778</description>
      <Style>
        <IconStyle>
          <color>ff2626dc</color>
          <scale>1.1</scale>
          <Icon><href>http://maps.google.com/mapfiles/kml/shapes/bus.png</href></Icon>
        </IconStyle>
      </Style>
      <Point><coordinates>72.91713777777778,20.949922222222224,0</coordinates></Point>
    </Placemark>
    <Placemark>
      <name>Bus 18</name>
      <description>Status: STOPPED
Speed: 0.0 km/h
Heading: 191 deg
Last update (UTC): 2026-10-05T05:13:10Z
https://www.google.com/maps/search/?api=1&amp;query=20.949177777777777,72.91373333333334</description>
      <Style>
        <IconStyle>
          <color>ff2626dc</color>
          <scale>1.1</scale>
          <Icon><href>http://maps.google.com/mapfiles/kml/shapes/bus.png</href></Icon>
        </IconStyle>
      </Style>
      <Point><coordinates>72.91373333333334,20.949177777777777,0</coordinates></Point>
    </Placemark>
    <Placemark>
      <name>Bus 19</name>
      <description>Status: STOPPED
Speed: 0.0 km/h
Heading: 251 deg
Last update (UTC): 2026-10-05T04:59:42Z
https://www.google.com/maps/search/?api=1&amp;query=20.949202222222223,72.91375111111111</description>
      <Style>
        <IconStyle>
          <color>ff2626dc</color>
          <scale>1.1</scale>
          <Icon><href>http://maps.google.com/mapfiles/kml/shapes/bus.png</href></Icon>
        </IconStyle>
      </Style>
      <Point><coordinates>72.91375111111111,20.949202222222223,0</coordinates></Point>
    </Placemark>
    <Placemark>
      <name>Bus 20</name>
      <description>Status: STOPPED
Speed: 0.0 km/h
Heading: 142 deg
Last update (UTC): 2026-10-05T06:12:35Z
https://www.google.com/maps/search/?api=1&amp;query=20.94534,72.96674222222222</description>
      <Style>
        <IconStyle>
          <color>ff2626dc</color>
          <scale>1.1</scale>
          <Icon><href>http://maps.google.com/mapfiles/kml/shapes/bus.png</href></Icon>
        </IconStyle>
      </Style>
      <Point><coordinates>72.96674222222222,20.94534,0</coordinates></Point>
    </Placemark>
  </Document>
</kml>
